OBJECT_NAME,OBJECT_ID,EPOCH,MEAN_MOTION,ECCENTRICITY,INCLINATION,RA_OF_ASC_NODE,ARG_OF_PERICENTER,MEAN_ANOMALY,EPHEMERIS_TYPE,CLASSIFICATION_TYPE,NORAD_CAT_ID,ELEMENT_SET_NO,REV_AT_EPOCH,BSTAR,MEAN_MOTION_DOT,MEAN_MOTION_DDOT
JILIN-1 GAOFEN 3A,2019-032C,2026-06-19T21:18:24.833088,15.32680431,.00063298,44.9757,342.0729,308.3796,51.6519,0,U,44312,999,38825,.33662205E-3,.1054E-3,0
WT 1B,2019-032G,2026-06-19T22:43:18.052608,15.27223605,.00100317,44.9718,45.8757,262.9358,97.0383,0,U,44316,999,38750,.27326097E-3,.7147E-4,0
PROX-1,2019-036A,2026-06-19T11:12:42.272352,14.90654850,.00058356,23.9947,99.0214,63.0188,297.0907,0,U,44339,999,37381,.11209756E-2,.11551E-3,0
NPSAT1,2019-036B,2026-06-19T10:02:15.308736,14.74593122,.00070394,23.9977,203.2302,233.0407,126.9444,0,U,44340,999,37282,.52034578E-3,.3793E-4,0
FORMOSAT 7-3,2019-036E,2026-06-19T15:05:51.309312,15.09811285,.00004124,23.9975,161.7331,327.2920,32.7558,0,U,44343,999,38361,.1609105E-3,.3015E-4,0
FORMOSAT 7-1,2019-036L,2026-06-19T17:08:11.556096,14.96514586,.00005955,23.9991,15.3581,182.6782,177.3716,0,U,44349,999,38503,.16265503E-3,.2196E-4,0
FORMOSAT 7-4,2019-036M,2026-06-19T22:28:37.077600,14.96506918,.00009856,23.9982,75.9622,211.9081,148.1360,0,U,44350,999,38448,.14842563E-3,.203E-4,0
FORMOSAT 7-2,2019-036N,2026-06-19T07:00:38.036160,14.96505409,.00005687,23.9970,134.6230,184.6903,175.3592,0,U,44351,999,38390,.14516953E-3,.1992E-4,0
FORMOSAT 7-6,2019-036Q,2026-06-19T11:48:18.851040,14.96520280,.0001373,23.9990,314.0938,113.4929,246.5716,0,U,44353,999,38216,.16916727E-3,.2273E-4,0
FORMOSAT 7-5,2019-036V,2026-06-19T12:51:33.595200,14.96525333,.00003877,23.9979,252.5486,140.0151,220.0378,0,U,44358,999,38270,.1398012E-3,.1931E-4,0
METEOR-M2 2,2019-038A,2026-06-19T21:56:11.829984,14.24365749,.00019667,98.9148,158.2398,44.1587,315.9748,0,U,44387,999,36168,-.95588592E-4,-.267E-5,0
GLOBAL-4,2019-054E,2026-06-19T15:09:37.846656,15.64608521,.00056965,45.0041,222.2925,350.2131,9.8654,0,U,44499,999,38074,.42045724E-3,.41512E-3,0
ZY-1 02D,2019-059A,2026-06-19T22:14:26.881728,14.35614782,.00037752,98.5873,232.3819,34.0990,326.0437,0,U,44528,999,35473,.48321325E-4,.95E-6,0
TAURUS-1 (JINNIUZUO 1),2019-059C,2026-06-19T21:26:46.965696,14.72119896,.000732,98.6422,335.8885,306.4738,53.5792,0,U,44530,999,35904,.81404167E-3,.5072E-4,0
ZHUHAI-1 03B,2019-060C,2026-06-19T21:18:04.309632,15.54216901,.00073402,97.5536,328.7983,306.1806,53.8768,0,U,44536,999,37674,.3866444E-3,.25158E-3,0
ZHUHAI-1 03D,2019-060E,2026-06-19T22:27:08.432928,15.49884252,.00065849,97.5400,320.9466,288.5858,71.4677,0,U,44538,999,37650,.47350885E-3,.26402E-3,0
ZHUHAI-1 03E,2019-060F,2026-06-19T21:44:11.969376,15.41139204,.00056849,97.5621,320.9469,24.1773,335.9739,0,U,44539,999,37618,.35542728E-3,.14652E-3,0
GAOFEN-7,2019-072A,2026-06-19T23:04:40.997568,15.21280398,.00185533,97.2423,232.3245,32.1551,328.0813,0,U,44703,999,36806,.13948474E-3,.3064E-4,0
JILIN-1 GAOFEN 2A,2019-075A,2026-06-19T22:19:40.918944,15.39372157,.00073474,97.4962,254.7846,79.4652,280.7421,0,U,44777,999,36530,.31636916E-3,.12296E-3,0
NINGXIA-1 1,2019-076A,2026-06-19T23:03:18.255744,14.02038500,.00108103,45.0035,167.4575,176.8420,183.2484,0,U,44779,999,33824,.21609157E-4,-.97E-6,0
NINGXIA-1 5,2019-076E,2026-06-19T23:22:18.549120,14.02086293,.00102345,45.0031,166.7390,166.8545,193.2558,0,U,44783,999,33816,.22323894E-4,-.95E-6,0
KL-ALPHA A,2019-077A,2026-06-19T22:10:48.338976,13.56043125,.0013341,88.9243,222.2657,99.2709,260.9955,0,U,44785,999,32610,-.5268732E-4,-.24E-6,0
CARTOSAT-3,2019-081A,2026-06-19T22:09:55.253952,15.19293089,.00133953,97.4297,232.7471,139.6393,220.5838,0,U,44804,999,36388,.93959873E-4,.1918E-4,0
JILIN-1 GAOFEN 2B,2019-086A,2026-06-19T21:51:34.096320,15.20734753,.00126982,97.4878,242.8848,313.9007,46.1179,0,U,44836,999,36090,.20560955E-3,.4462E-4,0
TIANQIN 1 (CAS-6),2019-093A,2026-06-19T23:11:39.907968,14.95442171,.00119682,97.7801,254.7860,49.2856,310.9402,0,U,44879,999,35246,.14555321E-3,.1553E-4,0
ETRSS-1,2019-093B,2026-06-19T21:44:00.434976,14.95874890,.00121718,97.7815,255.1871,50.3484,309.8809,0,U,44880,999,35246,.14774197E-3,.1595E-4,0
TIANYAN 01,2019-093C,2026-06-19T22:32:26.232000,14.86520650,.00150387,97.7526,243.1042,78.7667,281.5238,0,U,44881,999,35182,.32873071E-4,.238E-5,0
TIANYAN 02,2019-093D,2026-06-19T21:52:33.392640,15.05253388,.00138459,97.7936,265.7280,21.1425,339.0371,0,U,44882,999,35302,.32713552E-3,.4619E-4,0
