JILIN-1 GAOFEN 3A       
1 44312U 19032C   26170.88778742  .00010540  00000+0  33662-3 0  9998
2 44312  44.9757 342.0729 0006329 308.3796  51.6519 15.32680431388251
WT 1B                   
1 44316U 19032G   26170.94673672  .00007147  00000+0  27326-3 0  9994
2 44316  44.9718  45.8757 0010031 262.9358  97.0383 15.27223605387505
PROX-1                  
1 44339U 19036A   26170.46715593  .00011551  00000+0  11210-2 0  9997
2 44339  23.9947  99.0214 0005835  63.0188 297.0907 14.90654850373819
NPSAT1                  
1 44340U 19036B   26170.41823274  .00003793  00000+0  52035-3 0  9990
2 44340  23.9977 203.2302 0007039 233.0407 126.9444 14.74593122372824
FORMOSAT 7-3            
1 44343U 19036E   26170.62906608  .00003015  00000+0  16091-3 0  9998
2 44343  23.9975 161.7331 0000412 327.2920  32.7558 15.09811285383610
FORMOSAT 7-1            
1 44349U 19036L   26170.71402264  .00002196  00000+0  16266-3 0  9996
2 44349  23.9991  15.3581 0000595 182.6782 177.3716 14.96514586385035
FORMOSAT 7-4            
1 44350U 19036M   26170.93654025  .00002030  00000+0  14843-3 0  9992
2 44350  23.9982  75.9622 0000985 211.9081 148.1360 14.96506918384485
FORMOSAT 7-2            
1 44351U 19036N   26170.29210690  .00001992  00000+0  14517-3 0  9992
2 44351  23.9970 134.6230 0000568 184.6903 175.3592 14.96505409383906
FORMOSAT 7-6            
1 44353U 19036Q   26170.49188485  .00002273  00000+0  16917-3 0  9991
2 44353  23.9990 314.0938 0001373 113.4929 246.5716 14.96520280382162
FORMOSAT 7-5            
1 44358U 19036V   26170.53580550  .00001931  00000+0  13980-3 0  9997
2 44358  23.9979 252.5486 0000387 140.0151 220.0378 14.96525333382700
METEOR-M2 2             
1 44387U 19038A   26170.91402581 -.00000267  00000+0 -95589-4 0  9999
2 44387  98.9148 158.2398 0001966  44.1587 315.9748 14.24365749361680
GLOBAL-4                
1 44499U 19054E   26170.63168804  .00041512  00000+0  42046-3 0  9992
2 44499  45.0041 222.2925 0005696 350.2131   9.8654 15.64608521380743
ZY-1 02D                
1 44528U 19059A   26170.92670002  .00000095  00000+0  48321-4 0  9994
2 44528  98.5873 232.3819 0003775  34.0990 326.0437 14.35614782354738
TAURUS-1 (JINNIUZUO 1)  
1 44530U 19059C   26170.89359914  .00005072  00000+0  81404-3 0  9997
2 44530  98.6422 335.8885 0007320 306.4738  53.5792 14.72119896359042
ZHUHAI-1 03B            
1 44536U 19060C   26170.88754988  .00025158  00000+0  38664-3 0  9991
2 44536  97.5536 328.7983 0007340 306.1806  53.8768 15.54216901376745
ZHUHAI-1 03D            
1 44538U 19060E   26170.93551427  .00026402  00000+0  47351-3 0  9998
2 44538  97.5400 320.9466 0006584 288.5858  71.4677 15.49884252376509
ZHUHAI-1 03E            
1 44539U 19060F   26170.90569409  .00014652  00000+0  35543-3 0  9999
2 44539  97.5621 320.9469 0005684  24.1773 335.9739 15.41139204376181
GAOFEN-7                
1 44703U 19072A   26170.96158562  .00003064  00000+0  13948-3 0  9995
2 44703  97.2423 232.3245 0018553  32.1551 328.0813 15.21280398368064
JILIN-1 GAOFEN 2A       
1 44777U 19075A   26170.93033471  .00012296  00000+0  31637-3 0  9999
2 44777  97.4962 254.7846 0007347  79.4652 280.7421 15.39372157365302
NINGXIA-1 1             
1 44779U 19076A   26170.96062796 -.00000097  00000+0  21609-4 0  9993
2 44779  45.0035 167.4575 0010810 176.8420 183.2484 14.02038500338246
NINGXIA-1 5             
1 44783U 19076E   26170.97382580 -.00000095  00000+0  22324-4 0  9998
2 44783  45.0031 166.7390 0010234 166.8545 193.2558 14.02086293338167
KL-ALPHA A              
1 44785U 19077A   26170.92417059 -.00000024  00000+0 -52687-4 0  9994
2 44785  88.9243 222.2657 0013341  99.2709 260.9955 13.56043125326106
CARTOSAT-3              
1 44804U 19081A   26170.92355618  .00001918  00000+0  93960-4 0  9993
2 44804  97.4297 232.7471 0013395 139.6393 220.5838 15.19293089363884
JILIN-1 GAOFEN 2B       
1 44836U 19086A   26170.91081130  .00004462  00000+0  20561-3 0  9990
2 44836  97.4878 242.8848 0012698 313.9007  46.1179 15.20734753360908
TIANQIN 1 (CAS-6)       
1 44879U 19093A   26170.96643412  .00001553  00000+0  14555-3 0  9991
2 44879  97.7801 254.7860 0011968  49.2856 310.9402 14.95442171352464
ETRSS-1                 
1 44880U 19093B   26170.90556059  .00001595  00000+0  14774-3 0  9996
2 44880  97.7815 255.1871 0012171  50.3484 309.8809 14.95874890352460
TIANYAN 01              
1 44881U 19093C   26170.93919250  .00000238  00000+0  32873-4 0  9990
2 44881  97.7526 243.1042 0015038  78.7667 281.5238 14.86520650351822
TIANYAN 02              
1 44882U 19093D   26170.91149760  .00004619  00000+0  32714-3 0  9990
2 44882  97.7936 265.7280 0013845  21.1425 339.0371 15.05253388353024
